[{"OBJECT_NAME":"YAOGAN-40 02B","OBJECT_ID":"2025-096B","EPOCH":"2026-03-09T23:00:58.966848","MEAN_MOTION":14.12426787,"ECCENTRICITY":0.00021775,"INCLINATION":85.9909,"RA_OF_ASC_NODE":232.3937,"ARG_OF_PERICENTER":96.5499,"MEAN_ANOMALY":263.5932,"EPHEMERIS_TYPE":0,"CLASSIFICATION_TYPE":"U","NORAD_CAT_ID":63919,"ELEMENT_SET_NO":999,"REV_AT_EPOCH":4256,"BSTAR":0.00013302659,"MEAN_MOTION_DOT":2.64e-6,"MEAN_MOTION_DDOT":0},{"OBJECT_NAME":"METEOR 2-17 DEB","OBJECT_ID":"1988-005AC","EPOCH":"2026-03-07T01:14:03.283296","MEAN_MOTION":14.11384178,"ECCENTRICITY":0.00314083,"INCLINATION":82.5555,"RA_OF_ASC_NODE":329.9189,"ARG_OF_PERICENTER":32.6502,"MEAN_ANOMALY":327.6606,"EPHEMERIS_TYPE":0,"CLASSIFICATION_TYPE":"U","NORAD_CAT_ID":35368,"ELEMENT_SET_NO":999,"REV_AT_EPOCH":96430,"BSTAR":0.002013994,"MEAN_MOTION_DOT":3.675e-5,"MEAN_MOTION_DDOT":0}]
